[{"OBJECT_NAME":"OBJECT E","OBJECT_ID":"2024-174E","EPOCH":"2026-03-09T23:40:24.424320","MEAN_MOTION":15.26241811,"ECCENTRICITY":0.00122518,"INCLINATION":97.4515,"RA_OF_ASC_NODE":80.1669,"ARG_OF_PERICENTER":217.7524,"MEAN_ANOMALY":142.2856,"EPHEMERIS_TYPE":0,"CLASSIFICATION_TYPE":"U","NORAD_CAT_ID":61242,"ELEMENT_SET_NO":999,"REV_AT_EPOCH":8070,"BSTAR":0.00031155901,"MEAN_MOTION_DOT":8.013e-5,"MEAN_MOTION_DDOT":0},{"OBJECT_NAME":"STARLINK-35716","OBJECT_ID":"2025-303AE","EPOCH":"2026-03-09T21:47:40.242624","MEAN_MOTION":15.2758627,"ECCENTRICITY":0.0001579,"INCLINATION":43.0005,"RA_OF_ASC_NODE":309.9063,"ARG_OF_PERICENTER":312.0083,"MEAN_ANOMALY":48.0634,"EPHEMERIS_TYPE":0,"CLASSIFICATION_TYPE":"U","NORAD_CAT_ID":67191,"ELEMENT_SET_NO":999,"REV_AT_EPOCH":1276,"BSTAR":-0.0010705575,"MEAN_MOTION_DOT":-0.0002961,"MEAN_MOTION_DDOT":0}]
